[{"OBJECT_NAME":"SHIJIAN-6 02B (SJ-6 02B)","OBJECT_ID":"2006-046B","EPOCH":"2026-03-07T15:09:15.024960","MEAN_MOTION":15.00986186,"ECCENTRICITY":0.00140842,"INCLINATION":97.7055,"RA_OF_ASC_NODE":96.3822,"ARG_OF_PERICENTER":49.9757,"MEAN_ANOMALY":310.27,"EPHEMERIS_TYPE":0,"CLASSIFICATION_TYPE":"U","NORAD_CAT_ID":29506,"ELEMENT_SET_NO":999,"REV_AT_EPOCH":5550,"BSTAR":0.00020194624,"MEAN_MOTION_DOT":2.521e-5,"MEAN_MOTION_DDOT":0},{"OBJECT_NAME":"FGRST (GLAST)","OBJECT_ID":"2008-029A","EPOCH":"2026-03-07T15:39:25.441056","MEAN_MOTION":15.23313641,"ECCENTRICITY":0.00080426,"INCLINATION":25.5811,"RA_OF_ASC_NODE":189.1749,"ARG_OF_PERICENTER":204.3824,"MEAN_ANOMALY":155.6334,"EPHEMERIS_TYPE":0,"CLASSIFICATION_TYPE":"U","NORAD_CAT_ID":33053,"ELEMENT_SET_NO":999,"REV_AT_EPOCH":98033,"BSTAR":0.0002121142,"MEAN_MOTION_DOT":5.521e-5,"MEAN_MOTION_DDOT":0},{"OBJECT_NAME":"SDO","OBJECT_ID":"2010-005A","EPOCH":"2026-03-07T01:09:38.825856","MEAN_MOTION":1.00275599,"ECCENTRICITY":2.228e-5,"INCLINATION":34.436,"RA_OF_ASC_NODE":87.888,"ARG_OF_PERICENTER":51.9283,"MEAN_ANOMALY":300.4631,"EPHEMERIS_TYPE":0,"CLASSIFICATION_TYPE":"U","NORAD_CAT_ID":36395,"ELEMENT_SET_NO":999,"REV_AT_EPOCH":5903,"BSTAR":0,"MEAN_MOTION_DOT":-6.6e-7,"MEAN_MOTION_DDOT":0},{"OBJECT_NAME":"CRYOSAT 2","OBJECT_ID":"2010-013A","EPOCH":"2026-03-07T15:08:56.916384","MEAN_MOTION":14.51907718,"ECCENTRICITY":0.00021084,"INCLINATION":92.0225,"RA_OF_ASC_NODE":252.694,"ARG_OF_PERICENTER":88.2409,"MEAN_ANOMALY":271.9039,"EPHEMERIS_TYPE":0,"CLASSIFICATION_TYPE":"U","NORAD_CAT_ID":36508,"ELEMENT_SET_NO":999,"REV_AT_EPOCH":84334,"BSTAR":8.0754206e-5,"MEAN_MOTION_DOT":3.28e-6,"MEAN_MOTION_DDOT":0},{"OBJECT_NAME":"X-SAT","OBJECT_ID":"2011-015C","EPOCH":"2026-03-07T13:36:18.183168","MEAN_MOTION":14.25171324,"ECCENTRICITY":0.0012878,"INCLINATION":98.3428,"RA_OF_ASC_NODE":48.4821,"ARG_OF_PERICENTER":283.4091,"MEAN_ANOMALY":76.5654,"EPHEMERIS_TYPE":0,"CLASSIFICATION_TYPE":"U","NORAD_CAT_ID":37389,"ELEMENT_SET_NO":999,"REV_AT_EPOCH":77320,"BSTAR":8.1474192e-5,"MEAN_MOTION_DOT":1.5e-6,"MEAN_MOTION_DDOT":0},{"OBJECT_NAME":"GCOM-W1 (SHIZUKU)","OBJECT_ID":"2012-025A","EPOCH":"2026-03-07T15:06:24.327072","MEAN_MOTION":14.5709518,"ECCENTRICITY":0.00014905,"INCLINATION":98.2054,"RA_OF_ASC_NODE":8.7211,"ARG_OF_PERICENTER":74.8024,"MEAN_ANOMALY":98.4561,"EPHEMERIS_TYPE":0,"CLASSIFICATION_TYPE":"U","NORAD_CAT_ID":38337,"ELEMENT_SET_NO":999,"REV_AT_EPOCH":73424,"BSTAR":0.00022115203,"MEAN_MOTION_DOT":9.51e-6,"MEAN_MOTION_DDOT":0},{"OBJECT_NAME":"NUSTAR","OBJECT_ID":"2012-031A","EPOCH":"2026-03-07T16:00:01.999584","MEAN_MOTION":15.07688459,"ECCENTRICITY":0.00069991,"INCLINATION":6.0275,"RA_OF_ASC_NODE":75.0347,"ARG_OF_PERICENTER":31.1547,"MEAN_ANOMALY":271.1858,"EPHEMERIS_TYPE":0,"CLASSIFICATION_TYPE":"U","NORAD_CAT_ID":38358,"ELEMENT_SET_NO":999,"REV_AT_EPOCH":130,"BSTAR":0.0010690985,"MEAN_MOTION_DOT":0.00017696,"MEAN_MOTION_DDOT":0},{"OBJECT_NAME":"NEOSSAT","OBJECT_ID":"2013-009D","EPOCH":"2026-03-07T11:10:54.326784","MEAN_MOTION":14.35784498,"ECCENTRICITY":0.00108952,"INCLINATION":98.4139,"RA_OF_ASC_NODE":248.9251,"ARG_OF_PERICENTER":184.0421,"MEAN_ANOMALY":176.0679,"EPHEMERIS_TYPE":0,"CLASSIFICATION_TYPE":"U","NORAD_CAT_ID":39089,"ELEMENT_SET_NO":999,"REV_AT_EPOCH":68214,"BSTAR":0.00012834402,"MEAN_MOTION_DOT":3.29e-6,"MEAN_MOTION_DDOT":0},{"OBJECT_NAME":"BRITE-AUSTRIA","OBJECT_ID":"2013-009F","EPOCH":"2026-03-07T10:41:13.617600","MEAN_MOTION":14.36494872,"ECCENTRICITY":0.00102341,"INCLINATION":98.3952,"RA_OF_ASC_NODE":248.4089,"ARG_OF_PERICENTER":177.7131,"MEAN_ANOMALY":182.4104,"EPHEMERIS_TYPE":0,"CLASSIFICATION_TYPE":"U","NORAD_CAT_ID":39091,"ELEMENT_SET_NO":999,"REV_AT_EPOCH":68244,"BSTAR":0.0001390518,"MEAN_MOTION_DOT":3.66e-6,"MEAN_MOTION_DDOT":0},{"OBJECT_NAME":"IRIS","OBJECT_ID":"2013-033A","EPOCH":"2026-03-07T12:56:44.617920","MEAN_MOTION":14.85638932,"ECCENTRICITY":0.00233501,"INCLINATION":97.9396,"RA_OF_ASC_NODE":266.1012,"ARG_OF_PERICENTER":292.8565,"MEAN_ANOMALY":67.0185,"EPHEMERIS_TYPE":0,"CLASSIFICATION_TYPE":"U","NORAD_CAT_ID":39197,"ELEMENT_SET_NO":999,"REV_AT_EPOCH":68528,"BSTAR":0.00024545868,"MEAN_MOTION_DOT":2.08e-5,"MEAN_MOTION_DDOT":0},{"OBJECT_NAME":"HISAKI (SPRINT-A)","OBJECT_ID":"2013-049A","EPOCH":"2026-03-07T08:17:20.538240","MEAN_MOTION":13.55530454,"ECCENTRICITY":0.01366883,"INCLINATION":29.7223,"RA_OF_ASC_NODE":17.7749,"ARG_OF_PERICENTER":271.1013,"MEAN_ANOMALY":87.3902,"EPHEMERIS_TYPE":0,"CLASSIFICATION_TYPE":"U","NORAD_CAT_ID":39253,"ELEMENT_SET_NO":999,"REV_AT_EPOCH":61759,"BSTAR":7.9602929e-5,"MEAN_MOTION_DOT":1.26e-6,"MEAN_MOTION_DDOT":0},{"OBJECT_NAME":"CASSIOPE","OBJECT_ID":"2013-055A","EPOCH":"2026-03-07T13:51:11.017440","MEAN_MOTION":15.18564468,"ECCENTRICITY":0.03164109,"INCLINATION":80.9183,"RA_OF_ASC_NODE":189.4815,"ARG_OF_PERICENTER":43.2693,"MEAN_ANOMALY":319.292,"EPHEMERIS_TYPE":0,"CLASSIFICATION_TYPE":"U","NORAD_CAT_ID":39265,"ELEMENT_SET_NO":999,"REV_AT_EPOCH":65221,"BSTAR":0.00056684024,"MEAN_MOTION_DOT":0.00047161,"MEAN_MOTION_DDOT":-4.29907e-7},{"OBJECT_NAME":"STSAT-3","OBJECT_ID":"2013-066G","EPOCH":"2026-03-07T14:44:17.808864","MEAN_MOTION":15.02060748,"ECCENTRICITY":0.00117223,"INCLINATION":97.6066,"RA_OF_ASC_NODE":38.2761,"ARG_OF_PERICENTER":21.6494,"MEAN_ANOMALY":338.5224,"EPHEMERIS_TYPE":0,"CLASSIFICATION_TYPE":"U","NORAD_CAT_ID":39422,"ELEMENT_SET_NO":999,"REV_AT_EPOCH":66895,"BSTAR":0.00028026954,"MEAN_MOTION_DOT":3.624e-5,"MEAN_MOTION_DDOT":0},{"OBJECT_NAME":"SWARM B","OBJECT_ID":"2013-067A","EPOCH":"2026-03-07T13:45:26.646912","MEAN_MOTION":15.27834252,"ECCENTRICITY":0.00037102,"INCLINATION":87.7492,"RA_OF_ASC_NODE":13.1301,"ARG_OF_PERICENTER":88.2224,"MEAN_ANOMALY":271.945,"EPHEMERIS_TYPE":0,"CLASSIFICATION_TYPE":"U","NORAD_CAT_ID":39451,"ELEMENT_SET_NO":999,"REV_AT_EPOCH":66772,"BSTAR":0.00023045949,"MEAN_MOTION_DOT":6.293e-5,"MEAN_MOTION_DDOT":0},{"OBJECT_NAME":"SWARM A","OBJECT_ID":"2013-067B","EPOCH":"2026-03-07T14:10:23.967552","MEAN_MOTION":15.48692233,"ECCENTRICITY":0.00030716,"INCLINATION":87.3286,"RA_OF_ASC_NODE":93.9358,"ARG_OF_PERICENTER":94.0652,"MEAN_ANOMALY":266.0959,"EPHEMERIS_TYPE":0,"CLASSIFICATION_TYPE":"U","NORAD_CAT_ID":39452,"ELEMENT_SET_NO":999,"REV_AT_EPOCH":69051,"BSTAR":0.0002651128,"MEAN_MOTION_DOT":0.00014228,"MEAN_MOTION_DDOT":0},{"OBJECT_NAME":"SWARM C","OBJECT_ID":"2013-067C","EPOCH":"2026-03-07T14:10:14.640672","MEAN_MOTION":15.48691988,"ECCENTRICITY":0.00030741,"INCLINATION":87.3283,"RA_OF_ASC_NODE":92.5174,"ARG_OF_PERICENTER":94.4754,"MEAN_ANOMALY":265.6857,"EPHEMERIS_TYPE":0,"CLASSIFICATION_TYPE":"U","NORAD_CAT_ID":39453,"ELEMENT_SET_NO":999,"REV_AT_EPOCH":69047,"BSTAR":0.00026834484,"MEAN_MOTION_DOT":0.00014401,"MEAN_MOTION_DDOT":0},{"OBJECT_NAME":"BRITE-CA1 (TORONTO)","OBJECT_ID":"2014-033L","EPOCH":"2026-03-07T07:38:44.562048","MEAN_MOTION":14.72456016,"ECCENTRICITY":0.00778,"INCLINATION":97.9561,"RA_OF_ASC_NODE":197.2354,"ARG_OF_PERICENTER":242.6001,"MEAN_ANOMALY":116.7276,"EPHEMERIS_TYPE":0,"CLASSIFICATION_TYPE":"U","NORAD_CAT_ID":40020,"ELEMENT_SET_NO":999,"REV_AT_EPOCH":62722,"BSTAR":0.00030711,"MEAN_MOTION_DOT":1.989e-5,"MEAN_MOTION_DDOT":0}]
