SHIJIAN-6 02B (SJ-6 02B)
1 29506U 06046B   26066.63142390  .00002521  00000+0  20195-3 0  9995
2 29506  97.7055  96.3822 0014084  49.9757 310.2700 15.00986186 55507
FGRST (GLAST)           
1 33053U 08029A   26066.65237779  .00005521  00000+0  21211-3 0  9991
2 33053  25.5811 189.1749 0008042 204.3824 155.6334 15.23313641980333
SDO                     
1 36395U 10005A   26066.04836604 -.00000066  00000+0  00000+0 0  9994
2 36395  34.4360  87.8880 0000222  51.9283 300.4631  1.00275599 59033
CRYOSAT 2               
1 36508U 10013A   26066.63121431  .00000328  00000+0  80754-4 0  9998
2 36508  92.0225 252.6940 0002108  88.2409 271.9039 14.51907718843340
X-SAT                   
1 37389U 11015C   26066.56687712  .00000150  00000+0  81474-4 0  9993
2 37389  98.3428  48.4821 0012878 283.4091  76.5654 14.25171324773208
GCOM-W1 (SHIZUKU)       
1 38337U 12025A   26066.62944823  .00000951  00000+0  22115-3 0  9990
2 38337  98.2054   8.7211 0001490  74.8024  98.4561 14.57095180734245
NUSTAR                  
1 38358U 12031A   26066.66668981  .00017696  00000+0  10691-2 0  9991
2 38358   6.0275  75.0347 0006999  31.1547 271.1858 15.07688459  1308
NEOSSAT                 
1 39089U 13009D   26066.46590656  .00000329  00000+0  12834-3 0  9997
2 39089  98.4139 248.9251 0010895 184.0421 176.0679 14.35784498682149
BRITE-AUSTRIA           
1 39091U 13009F   26066.44529650  .00000366  00000+0  13905-3 0  9995
2 39091  98.3952 248.4089 0010234 177.7131 182.4104 14.36494872682444
IRIS                    
1 39197U 13033A   26066.53940530  .00002080  00000+0  24546-3 0  9991
2 39197  97.9396 266.1012 0023350 292.8565  67.0185 14.85638932685287
HISAKI (SPRINT-A)       
1 39253U 13049A   26066.34537660  .00000126  00000+0  79603-4 0  9990
2 39253  29.7223  17.7749 0136688 271.1013  87.3902 13.55530454617593
CASSIOPE                
1 39265U 13055A   26066.57721085  .00047161 -42991-6  56684-3 0  9997
2 39265  80.9183 189.4815 0316410  43.2693 319.2920 15.18564468652214
STSAT-3                 
1 39422U 13066G   26066.61409501  .00003624  00000+0  28027-3 0  9998
2 39422  97.6066  38.2761 0011722  21.6494 338.5224 15.02060748668956
SWARM B                 
1 39451U 13067A   26066.57322508  .00006293  00000+0  23046-3 0  9998
2 39451  87.7492  13.1301 0003710  88.2224 271.9450 15.27834252667722
SWARM A                 
1 39452U 13067B   26066.59055518  .00014228  00000+0  26511-3 0  9992
2 39452  87.3286  93.9358 0003071  94.0652 266.0959 15.48692233690514
SWARM C                 
1 39453U 13067C   26066.59044723  .00014401  00000+0  26834-3 0  9990
2 39453  87.3283  92.5174 0003074  94.4754 265.6857 15.48691988690476
BRITE-CA1 (TORONTO)     
1 40020U 14033L   26066.31857132  .00001989  00000+0  30711-3 0  9998
2 40020  97.9561 197.2354 0077800 242.6001 116.7276 14.72456016627228
